start=new Date('2022-02-27T00:00:00.000Z').valueOf();
sats=[{"EPHEMERIS_TYPE":"0","TLE_LINE1":"1 46035U 20055J   22057.90754687 -.00000609  00000-0 -21977-4 0  9999","RCS_SIZE":"LARGE","REV_AT_EPOCH":"8706","MEAN_ELEMENT_THEORY":"SGP4","ARG_OF_PERICENTER":"85.2069","LAUNCH_DATE":"2020-08-07","MEAN_MOTION":"15.06388665","COUNTRY_CODE":"US","MEAN_MOTION_DDOT":"0.0000000000000","CLASSIFICATION_TYPE":"U","CENTER_NAME":"EARTH","REF_FRAME":"TEME","TLE_LINE2":"2 46035  53.0523 253.6972 0001358  85.2069 274.9075 15.06388665 87062","EPOCH":"2022-02-26T21:46:52.049568","DECAY_DATE":null,"RA_OF_ASC_NODE":"253.6972","OBJECT_TYPE":"PAYLOAD","SEMIMAJOR_AXIS":"6925.383","MEAN_MOTION_DOT":"-0.00000609","ELEMENT_SET_NO":"999","OBJECT_NAME":"STARLINK-1558","SITE":"AFETR","BSTAR":"-0.00002197700000","PERIAPSIS":"546.308","MEAN_ANOMALY":"274.9075","INCLINATION":"53.0523","PERIOD":"95.593","TIME_SYSTEM":"UTC","GP_ID":"197158565","NORAD_CAT_ID":"46035","ECCENTRICITY":"0.00013580","APOAPSIS":"548.189","OBJECT_ID":"2020-055J","FILE":"3327391"},{"EPOCH":"2022-02-26T21:25:37.520832","TLE_LINE2":"2 46036  53.0530 253.7582 0001735  73.6802 286.4377 15.06401369 87064","MEAN_MOTION":"15.06401369","COUNTRY_CODE":"US","REF_FRAME":"TEME","MEAN_MOTION_DDOT":"0.0000000000000","CENTER_NAME":"EARTH","CLASSIFICATION_TYPE":"U","REV_AT_EPOCH":"8706","RCS_SIZE":"LARGE","MEAN_ELEMENT_THEORY":"SGP4","LAUNCH_DATE":"2020-08-07","ARG_OF_PERICENTER":"73.6802","EPHEMERIS_TYPE":"0","TLE_LINE1":"1 46036U 20055K   22057.89279538  .00001754  00000-0  13659-3 0  9992","ECCENTRICITY":"0.00017350","NORAD_CAT_ID":"46036","FILE":"3327391","OBJECT_ID":"2020-055K","APOAPSIS":"548.411","TIME_SYSTEM":"UTC","GP_ID":"197156817","BSTAR":"0.00013659000000","MEAN_ANOMALY":"286.4377","PERIAPSIS":"546.008","INCLINATION":"53.0530","PERIOD":"95.592","DECAY_DATE":null,"OBJECT_TYPE":"PAYLOAD","RA_OF_ASC_NODE":"253.7582","SITE":"AFETR","SEMIMAJOR_AXIS":"6925.344","MEAN_MOTION_DOT":"0.00001754","OBJECT_NAME":"STARLINK-1560","ELEMENT_SET_NO":"999"},{"ECCENTRICITY":"0.00012970","NORAD_CAT_ID":"46037","FILE":"3327391","OBJECT_ID":"2020-055L","APOAPSIS":"548.109","TIME_SYSTEM":"UTC","GP_ID":"197157067","BSTAR":"0.00013884000000","MEAN_ANOMALY":"283.4522","PERIAPSIS":"546.313","INCLINATION":"53.0546","PERIOD":"95.592","DECAY_DATE":null,"OBJECT_TYPE":"PAYLOAD","RA_OF_ASC_NODE":"254.0995","SITE":"AFETR","SEMIMAJOR_AXIS":"6925.346","OBJECT_NAME":"STARLINK-1565","MEAN_MOTION_DOT":"0.00001787","ELEMENT_SET_NO":"999","EPOCH":"2022-02-26T19:44:48.873696","TLE_LINE2":"2 46037  53.0546 254.0995 0001297  76.6612 283.4522 15.06400799 87042","MEAN_MOTION":"15.06400799","COUNTRY_CODE":"US","REF_FRAME":"TEME","MEAN_MOTION_DDOT":"0.0000000000000","CLASSIFICATION_TYPE":"U","CENTER_NAME":"EARTH","REV_AT_EPOCH":"8704","RCS_SIZE":"LARGE","MEAN_ELEMENT_THEORY":"SGP4","ARG_OF_PERICENTER":"76.6612","LAUNCH_DATE":"2020-08-07","EPHEMERIS_TYPE":"0","TLE_LINE1":"1 46037U 20055L   22057.82278789  .00001787  00000-0  13884-3 0  9999"},{"MEAN_MOTION":"15.06396475","COUNTRY_CODE":"US","REF_FRAME":"TEME","CLASSIFICATION_TYPE":"U","MEAN_MOTION_DDOT":"0.0000000000000","CENTER_NAME":"EARTH","EPOCH":"2022-02-26T20:06:00.893376","TLE_LINE2":"2 46038  53.0544 254.0315 0001236  81.0069 279.1060 15.06396475 87040","EPHEMERIS_TYPE":"0","TLE_LINE1":"1 46038U 20055M   22057.83751034 -.00000208  00000-0  49288-5 0  9997","REV_AT_EPOCH":"8704","RCS_SIZE":"LARGE","MEAN_ELEMENT_THEORY":"SGP4","ARG_OF_PERICENTER":"81.0069","LAUNCH_DATE":"2020-08-07","TIME_SYSTEM":"UTC","GP_ID":"197158319","ECCENTRICITY":"0.00012360","NORAD_CAT_ID":"46038","FILE":"3327391","OBJECT_ID":"2020-055M","APOAPSIS":"548.080","DECAY_DATE":null,"OBJECT_TYPE":"PAYLOAD","RA_OF_ASC_NODE":"254.0315","SITE":"AFETR","OBJECT_NAME":"STARLINK-1567","SEMIMAJOR_AXIS":"6925.359","MEAN_MOTION_DOT":"-0.00000208","ELEMENT_SET_NO":"999","BSTAR":"0.00000492880000","MEAN_ANOMALY":"279.1060","PERIAPSIS":"546.368","PERIOD":"95.592","INCLINATION":"53.0544"},{"EPOCH":"2022-02-26T21:52:13.873152","TLE_LINE2":"2 46039  53.0539 253.7002 0002172  73.6044 286.5184 15.06299928 87059","MEAN_MOTION":"15.06299928","COUNTRY_CODE":"US","REF_FRAME":"TEME","MEAN_MOTION_DDOT":"0.0000000000000","CLASSIFICATION_TYPE":"U","CENTER_NAME":"EARTH","REV_AT_EPOCH":"8705","RCS_SIZE":"LARGE","MEAN_ELEMENT_THEORY":"SGP4","LAUNCH_DATE":"2020-08-07","ARG_OF_PERICENTER":"73.6044","EPHEMERIS_TYPE":"0","TLE_LINE1":"1 46039U 20055N   22057.91127168  .00022829  00000-0  15507-2 0  9998","ECCENTRICITY":"0.00021720","NORAD_CAT_ID":"46039","FILE":"3327391","OBJECT_ID":"2020-055N","APOAPSIS":"549.025","TIME_SYSTEM":"UTC","GP_ID":"197158065","BSTAR":"0.00155070000000","MEAN_ANOMALY":"286.5184","PERIAPSIS":"546.016","PERIOD":"95.598","INCLINATION":"53.0539","DECAY_DATE":null,"OBJECT_TYPE":"PAYLOAD","RA_OF_ASC_NODE":"253.7002","SITE":"AFETR","MEAN_MOTION_DOT":"0.00022829","SEMIMAJOR_AXIS":"6925.655","ELEMENT_SET_NO":"999","OBJECT_NAME":"STARLINK-1569"},{"OBJECT_TYPE":"PAYLOAD","RA_OF_ASC_NODE":"253.8646","DECAY_DATE":null,"SITE":"AFETR","ELEMENT_SET_NO":"999","SEMIMAJOR_AXIS":"6925.352","MEAN_MOTION_DOT":"0.00000192","OBJECT_NAME":"STARLINK-1576","BSTAR":"0.00003179100000","PERIOD":"95.592","INCLINATION":"53.0526","MEAN_ANOMALY":"282.0179","PERIAPSIS":"546.074","GP_ID":"197157318","TIME_SYSTEM":"UTC","ECCENTRICITY":"0.00016510","NORAD_CAT_ID":"46040","OBJECT_ID":"2020-055P","FILE":"3327391","APOAPSIS":"548.361","EPHEMERIS_TYPE":"0","TLE_LINE1":"1 46040U 20055P   22057.87437699  .00000192  00000-0  31791-4 0  9992","MEAN_ELEMENT_THEORY":"SGP4","REV_AT_EPOCH":"8701","RCS_SIZE":"LARGE","LAUNCH_DATE":"2020-08-07","ARG_OF_PERICENTER":"78.0995","MEAN_MOTION":"15.06398821","REF_FRAME":"TEME","MEAN_MOTION_DDOT":"0.0000000000000","CENTER_NAME":"EARTH","CLASSIFICATION_TYPE":"U","COUNTRY_CODE":"US","EPOCH":"2022-02-26T20:59:06.171936","TLE_LINE2":"2 46040  53.0526 253.8646 0001651  78.0995 282.0179 15.06398821 87010"},{"REF_FRAME":"TEME","CENTER_NAME":"EARTH","MEAN_MOTION_DDOT":"0.0000000000000","CLASSIFICATION_TYPE":"U","COUNTRY_CODE":"US","MEAN_MOTION":"15.06407804","EPOCH":"2022-02-26T19:27:29.632032","TLE_LINE2":"2 46041  53.0521 254.1507 0001644  71.2357 288.8810 15.06407804 87013","TLE_LINE1":"1 46041U 20055Q   22057.81075963  .00001738  00000-0  13555-3 0  9993","EPHEMERIS_TYPE":"0","ARG_OF_PERICENTER":"71.2357","LAUNCH_DATE":"2020-08-07","MEAN_ELEMENT_THEORY":"SGP4","REV_AT_EPOCH":"8701","RCS_SIZE":"LARGE","GP_ID":"197157568","TIME_SYSTEM":"UTC","FILE":"3327391","OBJECT_ID":"2020-055Q","APOAPSIS":"548.328","NORAD_CAT_ID":"46041","ECCENTRICITY":"0.00016440","SITE":"AFETR","MEAN_MOTION_DOT":"0.00001738","SEMIMAJOR_AXIS":"6925.325","ELEMENT_SET_NO":"999","OBJECT_NAME":"STARLINK-1580","OBJECT_TYPE":"PAYLOAD","RA_OF_ASC_NODE":"254.1507","DECAY_DATE":null,"PERIOD":"95.592","INCLINATION":"53.0521","MEAN_ANOMALY":"288.8810","PERIAPSIS":"546.051","BSTAR":"0.00013555000000"},{"OBJECT_TYPE":"PAYLOAD","RA_OF_ASC_NODE":"253.9291","DECAY_DATE":null,"SITE":"AFETR","SEMIMAJOR_AXIS":"6925.343","OBJECT_NAME":"STARLINK-1581","MEAN_MOTION_DOT":"0.00001589","ELEMENT_SET_NO":"999","BSTAR":"0.00012552000000","INCLINATION":"53.0524","PERIOD":"95.592","MEAN_ANOMALY":"289.1179","PERIAPSIS":"546.223","GP_ID":"197157819","TIME_SYSTEM":"UTC","ECCENTRICITY":"0.00014220","NORAD_CAT_ID":"46042","FILE":"3327391","OBJECT_ID":"2020-055R","APOAPSIS":"548.192","EPHEMERIS_TYPE":"0","TLE_LINE1":"1 46042U 20055R   22057.85962075  .00001589  00000-0  12552-3 0  9997","MEAN_ELEMENT_THEORY":"SGP4","REV_AT_EPOCH":"8701","RCS_SIZE":"LARGE","LAUNCH_DATE":"2020-08-07","ARG_OF_PERICENTER":"70.9964","MEAN_MOTION":"15.06401916","REF_FRAME":"TEME","CENTER_NAME":"EARTH","MEAN_MOTION_DDOT":"0.0000000000000","CLASSIFICATION_TYPE":"U","COUNTRY_CODE":"US","EPOCH":"2022-02-26T20:37:51.232800","TLE_LINE2":"2 46042  53.0524 253.9291 0001422  70.9964 289.1179 15.06401916 87018"},{"TLE_LINE1":"1 46043U 20055S   22057.85225480  .00002594  00000-0  19299-3 0  9992","EPHEMERIS_TYPE":"0","ARG_OF_PERICENTER":"79.8993","LAUNCH_DATE":"2020-08-07","MEAN_ELEMENT_THEORY":"SGP4","REV_AT_EPOCH":"8704","RCS_SIZE":"LARGE","REF_FRAME":"TEME","CLASSIFICATION_TYPE":"U","MEAN_MOTION_DDOT":"0.0000000000000","CENTER_NAME":"EARTH","COUNTRY_CODE":"US","MEAN_MOTION":"15.06402337","EPOCH":"2022-02-26T20:27:14.814720","TLE_LINE2":"2 46043  53.0537 253.9662 0001556  79.8993 280.2172 15.06402337 87049","SITE":"AFETR","MEAN_MOTION_DOT":"0.00002594","SEMIMAJOR_AXIS":"6925.341","ELEMENT_SET_NO":"999","OBJECT_NAME":"STARLINK-1582","OBJECT_TYPE":"PAYLOAD","RA_OF_ASC_NODE":"253.9662","DECAY_DATE":null,"PERIOD":"95.592","INCLINATION":"53.0537","MEAN_ANOMALY":"280.2172","PERIAPSIS":"546.129","BSTAR":"0.00019299000000","GP_ID":"197158566","TIME_SYSTEM":"UTC","OBJECT_ID":"2020-055S","FILE":"3327391","APOAPSIS":"548.284","NORAD_CAT_ID":"46043","ECCENTRICITY":"0.00015560"},{"TLE_LINE2":"2 46044  53.0537 254.1819 0001601  85.0201 275.0970 15.06395093 87047","EPOCH":"2022-02-26T19:12:56.900448","MEAN_MOTION":"15.06395093","MEAN_MOTION_DDOT":"0.0000000000000","CLASSIFICATION_TYPE":"U","CENTER_NAME":"EARTH","REF_FRAME":"TEME","COUNTRY_CODE":"US","MEAN_ELEMENT_THEORY":"SGP4","RCS_SIZE":"LARGE","REV_AT_EPOCH":"8704","ARG_OF_PERICENTER":"85.0201","LAUNCH_DATE":"2020-08-07","EPHEMERIS_TYPE":"0","TLE_LINE1":"1 46044U 20055T   22057.80065857  .00002616  00000-0  19446-3 0  9997","ECCENTRICITY":"0.00016010","NORAD_CAT_ID":"46044","APOAPSIS":"548.337","FILE":"3327391","OBJECT_ID":"2020-055T","GP_ID":"197156818","TIME_SYSTEM":"UTC","BSTAR":"0.00019446000000","PERIOD":"95.592","INCLINATION":"53.0537","PERIAPSIS":"546.120","MEAN_ANOMALY":"275.0970","RA_OF_ASC_NODE":"254.1819","OBJECT_TYPE":"PAYLOAD","DECAY_DATE":null,"MEAN_MOTION_DOT":"0.00002616","SEMIMAJOR_AXIS":"6925.364","ELEMENT_SET_NO":"999","OBJECT_NAME":"STARLINK-1584","SITE":"AFETR"}];
